{
  "type": "FeatureCollection",
  "features": [
    {
      "type": "Feature",
      "properties": {
        "norad_id": 34070,
        "name": "COSMOS 2251 DEB",
        "group": "cosmos-2251-debris",
        "lat": 7.98384401784876,
        "lon": 130.12165843580107,
        "alt_km": 649.1713173694652,
        "timestamp": "2025-12-06T20:37:56.469139+00:00",
        "meta_object_name": "COSMOS 2251 DEB",
        "meta_object_id": "1993-036KH",
        "meta_epoch": "2025-12-06T09:20:32.307648",
        "meta_mean_motion": 14.76673148,
        "meta_eccentricity": 0.00191507,
        "meta_inclination": 74.001,
        "meta_ra_of_asc_node": 128.7387,
        "meta_arg_of_pericenter": 243.5327,
        "meta_mean_anomaly": 144.9706,
        "meta_ephemeris_type": 0,
        "meta_classification_type": "U",
        "meta_norad_cat_id": 34070,
        "meta_element_set_no": 999,
        "meta_rev_at_epoch": 88517,
        "meta_bstar": 0.0047879234,
        "meta_mean_motion_dot": 0.0003373,
        "meta_mean_motion_ddot": 0,
        "tle_line1": "1 34070U 93036KH  25340.38926282  .00033730  00000+0  47879-2 0  9991",
        "tle_line2": "2 34070  74.0010 128.7387 0019150 243.5327 144.9706 14.76673148885173"
      },
      "geometry": {
        "type": "Point",
        "coordinates": [
          130.12165843580107,
          7.98384401784876
        ]
      }
    },
    {
      "type": "Feature",
      "properties": {
        "norad_id": 34114,
        "name": "COSMOS 2251 DEB",
        "group": "cosmos-2251-debris",
        "lat": -64.29472265085472,
        "lon": 18.551556832430638,
        "alt_km": 729.5515077654991,
        "timestamp": "2025-12-06T20:37:56.469150+00:00",
        "meta_object_name": "COSMOS 2251 DEB",
        "meta_object_id": "1993-036KK",
        "meta_epoch": "2025-12-06T14:53:09.210336",
        "meta_mean_motion": 14.56249304,
        "meta_eccentricity": 0.00473853,
        "meta_inclination": 74.0601,
        "meta_ra_of_asc_node": 55.4253,
        "meta_arg_of_pericenter": 52.4415,
        "meta_mean_anomaly": 63.7652,
        "meta_ephemeris_type": 0,
        "meta_classification_type": "U",
        "meta_norad_cat_id": 34114,
        "meta_element_set_no": 999,
        "meta_rev_at_epoch": 87712,
        "meta_bstar": 0.0029530422,
        "meta_mean_motion_dot": 0.00013261,
        "meta_mean_motion_ddot": 0,
        "tle_line1": "1 34114U 93036KK  25340.62024549  .00013261  00000+0  29530-2 0  9993",
        "tle_line2": "2 34114  74.0601  55.4253 0047385  52.4415  63.7652 14.56249304877127"
      },
      "geometry": {
        "type": "Point",
        "coordinates": [
          18.551556832430638,
          -64.29472265085472
        ]
      }
    },
    {
      "type": "Feature",
      "properties": {
        "norad_id": 34115,
        "name": "COSMOS 2251 DEB",
        "group": "cosmos-2251-debris",
        "lat": -73.21594620723197,
        "lon": -178.42960452234433,
        "alt_km": 657.3888529469677,
        "timestamp": "2025-12-06T20:37:56.469160+00:00",
        "meta_object_name": "COSMOS 2251 DEB",
        "meta_object_id": "1993-036KL",
        "meta_epoch": "2025-12-06T04:47:10.581792",
        "meta_mean_motion": 14.7933224,
        "meta_eccentricity": 0.00283316,
        "meta_inclination": 74.0077,
        "meta_ra_of_asc_node": 254.8348,
        "meta_arg_of_pericenter": 80.3331,
        "meta_mean_anomaly": 280.1044,
        "meta_ephemeris_type": 0,
        "meta_classification_type": "U",
        "meta_norad_cat_id": 34115,
        "meta_element_set_no": 999,
        "meta_rev_at_epoch": 89315,
        "meta_bstar": 0.0017417398,
        "meta_mean_motion_dot": 0.0001305,
        "meta_mean_motion_ddot": 0,
        "tle_line1": "1 34115U 93036KL  25340.19942803  .00013050  00000+0  17417-2 0  9995",
        "tle_line2": "2 34115  74.0077 254.8348 0028331  80.3331 280.1044 14.79332240893150"
      },
      "geometry": {
        "type": "Point",
        "coordinates": [
          -178.42960452234433,
          -73.21594620723197
        ]
      }
    },
    {
      "type": "Feature",
      "properties": {
        "norad_id": 34116,
        "name": "COSMOS 2251 DEB",
        "group": "cosmos-2251-debris",
        "lat": 70.32314261859726,
        "lon": -112.9755377647565,
        "alt_km": 717.4321355562024,
        "timestamp": "2025-12-06T20:37:56.469171+00:00",
        "meta_object_name": "COSMOS 2251 DEB",
        "meta_object_id": "1993-036KM",
        "meta_epoch": "2025-12-06T15:37:15.569760",
        "meta_mean_motion": 14.52925996,
        "meta_eccentricity": 0.0012215,
        "meta_inclination": 74.0399,
        "meta_ra_of_asc_node": 194.2606,
        "meta_arg_of_pericenter": 270.362,
        "meta_mean_anomaly": 156.258,
        "meta_ephemeris_type": 0,
        "meta_classification_type": "U",
        "meta_norad_cat_id": 34116,
        "meta_element_set_no": 999,
        "meta_rev_at_epoch": 88398,
        "meta_bstar": 0.001242558,
        "meta_mean_motion_dot": 5.1e-05,
        "meta_mean_motion_ddot": 0,
        "tle_line1": "1 34116U 93036KM  25340.65087465  .00005100  00000+0  12426-2 0  9993",
        "tle_line2": "2 34116  74.0399 194.2606 0012215 270.3620 156.2580 14.52925996883983"
      },
      "geometry": {
        "type": "Point",
        "coordinates": [
          -112.9755377647565,
          70.32314261859726
        ]
      }
    },
    {
      "type": "Feature",
      "properties": {
        "norad_id": 34117,
        "name": "COSMOS 2251 DEB",
        "group": "cosmos-2251-debris",
        "lat": -0.3831160217525826,
        "lon": 174.80328628852706,
        "alt_km": 772.6396320460108,
        "timestamp": "2025-12-06T20:37:56.469182+00:00",
        "meta_object_name": "COSMOS 2251 DEB",
        "meta_object_id": "1993-036KN",
        "meta_epoch": "2025-12-05T18:47:34.349280",
        "meta_mean_motion": 14.39969266,
        "meta_eccentricity": 0.00543901,
        "meta_inclination": 74.0403,
        "meta_ra_of_asc_node": 356.6817,
        "meta_arg_of_pericenter": 75.1599,
        "meta_mean_anomaly": 285.5572,
        "meta_ephemeris_type": 0,
        "meta_classification_type": "U",
        "meta_norad_cat_id": 34117,
        "meta_element_set_no": 999,
        "meta_rev_at_epoch": 88023,
        "meta_bstar": 0.0011934293,
        "meta_mean_motion_dot": 3.798e-05,
        "meta_mean_motion_ddot": 0,
        "tle_line1": "1 34117U 93036KN  25339.78303645  .00003798  00000+0  11934-2 0  9991",
        "tle_line2": "2 34117  74.0403 356.6817 0054390  75.1599 285.5572 14.39969266880239"
      },
      "geometry": {
        "type": "Point",
        "coordinates": [
          174.80328628852706,
          -0.3831160217525826
        ]
      }
    },
    {
      "type": "Feature",
      "properties": {
        "norad_id": 34118,
        "name": "COSMOS 2251 DEB",
        "group": "cosmos-2251-debris",
        "lat": -13.558845501543058,
        "lon": 85.1806909517756,
        "alt_km": 598.6942536084707,
        "timestamp": "2025-12-06T20:37:56.469193+00:00",
        "meta_object_name": "COSMOS 2251 DEB",
        "meta_object_id": "1993-036KP",
        "meta_epoch": "2025-12-06T12:31:30.502848",
        "meta_mean_motion": 14.93566696,
        "meta_eccentricity": 0.00598807,
        "meta_inclination": 73.9534,
        "meta_ra_of_asc_node": 261.8833,
        "meta_arg_of_pericenter": 93.7961,
        "meta_mean_anomaly": 83.9821,
        "meta_ephemeris_type": 0,
        "meta_classification_type": "U",
        "meta_norad_cat_id": 34118,
        "meta_element_set_no": 999,
        "meta_rev_at_epoch": 89083,
        "meta_bstar": 0.003645012,
        "meta_mean_motion_dot": 0.00040004,
        "meta_mean_motion_ddot": 0,
        "tle_line1": "1 34118U 93036KP  25340.52188082  .00040004  00000+0  36450-2 0  9993",
        "tle_line2": "2 34118  73.9534 261.8833 0059880  93.7961  83.9821 14.93566696890830"
      },
      "geometry": {
        "type": "Point",
        "coordinates": [
          85.1806909517756,
          -13.558845501543058
        ]
      }
    },
    {
      "type": "Feature",
      "properties": {
        "norad_id": 34120,
        "name": "COSMOS 2251 DEB",
        "group": "cosmos-2251-debris",
        "lat": 73.54447048088471,
        "lon": -29.989581616933105,
        "alt_km": 786.4659640533882,
        "timestamp": "2025-12-06T20:37:56.469204+00:00",
        "meta_object_name": "COSMOS 2251 DEB",
        "meta_object_id": "1993-036KR",
        "meta_epoch": "2025-12-06T10:45:26.067168",
        "meta_mean_motion": 13.98673118,
        "meta_eccentricity": 0.01816759,
        "meta_inclination": 73.9917,
        "meta_ra_of_asc_node": 227.1178,
        "meta_arg_of_pericenter": 56.2168,
        "meta_mean_anomaly": 125.3111,
        "meta_ephemeris_type": 0,
        "meta_classification_type": "U",
        "meta_norad_cat_id": 34120,
        "meta_element_set_no": 999,
        "meta_rev_at_epoch": 85892,
        "meta_bstar": 0.00065649721,
        "meta_mean_motion_dot": 1.063e-05,
        "meta_mean_motion_ddot": 0,
        "tle_line1": "1 34120U 93036KR  25340.44821837  .00001063  00000+0  65650-3 0  9996",
        "tle_line2": "2 34120  73.9917 227.1178 0181675  56.2168 125.3111 13.98673118858925"
      },
      "geometry": {
        "type": "Point",
        "coordinates": [
          -29.989581616933105,
          73.54447048088471
        ]
      }
    }
  ]
}